[{"OBJECT_NAME":"OBJECT H","OBJECT_ID":"2024-205H","EPOCH":"2026-03-09T23:10:36.271776","MEAN_MOTION":15.29110994,"ECCENTRICITY":0.00105089,"INCLINATION":97.4168,"RA_OF_ASC_NODE":147.1265,"ARG_OF_PERICENTER":38.7838,"MEAN_ANOMALY":321.4154,"EPHEMERIS_TYPE":0,"CLASSIFICATION_TYPE":"U","NORAD_CAT_ID":61901,"ELEMENT_SET_NO":999,"REV_AT_EPOCH":7354,"BSTAR":0.00059497566,"MEAN_MOTION_DOT":0.00016783,"MEAN_MOTION_DDOT":0},{"OBJECT_NAME":"STARLINK-34334","OBJECT_ID":"2025-120T","EPOCH":"2026-03-09T10:45:54.220608","MEAN_MOTION":15.30187106,"ECCENTRICITY":0.00015148,"INCLINATION":53.1603,"RA_OF_ASC_NODE":117.4995,"ARG_OF_PERICENTER":66.6035,"MEAN_ANOMALY":293.5125,"EPHEMERIS_TYPE":0,"CLASSIFICATION_TYPE":"U","NORAD_CAT_ID":64273,"ELEMENT_SET_NO":999,"REV_AT_EPOCH":4388,"BSTAR":0.00086638231,"MEAN_MOTION_DOT":0.00025378,"MEAN_MOTION_DDOT":0}]
